start=new Date('2022-03-14T00:00:00.000Z').valueOf();
sats=[{"REV_AT_EPOCH":"5678","TLE_LINE1":"1 47909U 21021BB  22072.94202204 -.00002817  00000-0 -17031-3 0  9996","SEMIMAJOR_AXIS":"6925.383","GP_ID":"198688336","MEAN_ANOMALY":"304.9516","PERIOD":"95.593","REF_FRAME":"TEME","BSTAR":"-0.00017031000000","APOAPSIS":"548.415","MEAN_ELEMENT_THEORY":"SGP4","CENTER_NAME":"EARTH","COUNTRY_CODE":"US","INCLINATION":"53.0559","MEAN_MOTION_DDOT":"0.0000000000000","DECAY_DATE":null,"NORAD_CAT_ID":"47909","RCS_SIZE":"LARGE","OBJECT_TYPE":"PAYLOAD","OBJECT_ID":"2021-021BB","LAUNCH_DATE":"2021-03-14","TLE_LINE2":"2 47909  53.0559 331.2190 0001685  55.1631 304.9516 15.06388642 56785","SITE":"AFETR","ARG_OF_PERICENTER":"55.1631","PERIAPSIS":"546.081","RA_OF_ASC_NODE":"331.2190","TIME_SYSTEM":"UTC","MEAN_MOTION":"15.06388642","EPOCH":"2022-03-13T22:36:30.704256","FILE":"3358388","ELEMENT_SET_NO":"999","CLASSIFICATION_TYPE":"U","MEAN_MOTION_DOT":"-0.00002817","OBJECT_NAME":"STARLINK-2369","ECCENTRICITY":"0.00016850","EPHEMERIS_TYPE":"0"},{"EPHEMERIS_TYPE":"0","ECCENTRICITY":"0.00015270","MEAN_MOTION_DOT":"-0.00000899","OBJECT_NAME":"STARLINK-2370","CLASSIFICATION_TYPE":"U","FILE":"3358388","EPOCH":"2022-03-13T21:52:41.192832","ELEMENT_SET_NO":"999","TIME_SYSTEM":"UTC","MEAN_MOTION":"15.06385293","ARG_OF_PERICENTER":"67.0249","RA_OF_ASC_NODE":"331.3458","PERIAPSIS":"546.201","LAUNCH_DATE":"2021-03-14","TLE_LINE2":"2 47910  53.0558 331.3458 0001527  67.0249 293.0901 15.06385293 56635","SITE":"AFETR","OBJECT_ID":"2021-021BC","RCS_SIZE":"LARGE","OBJECT_TYPE":"PAYLOAD","MEAN_MOTION_DDOT":"0.0000000000000","DECAY_DATE":null,"NORAD_CAT_ID":"47910","COUNTRY_CODE":"US","INCLINATION":"53.0558","APOAPSIS":"548.316","MEAN_ELEMENT_THEORY":"SGP4","CENTER_NAME":"EARTH","MEAN_ANOMALY":"293.0901","PERIOD":"95.593","REF_FRAME":"TEME","BSTAR":"-0.00004145800000","REV_AT_EPOCH":"5663","TLE_LINE1":"1 47910U 21021BC  22072.91158788 -.00000899  00000-0 -41458-4 0  9991","GP_ID":"198689083","SEMIMAJOR_AXIS":"6925.394"},{"TIME_SYSTEM":"UTC","MEAN_MOTION":"15.06395167","ELEMENT_SET_NO":"999","FILE":"3358388","EPOCH":"2022-03-13T21:42:44.320032","LAUNCH_DATE":"2021-03-14","SITE":"AFETR","TLE_LINE2":"2 47911  53.0559 346.3839 0001574  71.6819 288.4341 15.06395167 56257","PERIAPSIS":"546.138","RA_OF_ASC_NODE":"346.3839","ARG_OF_PERICENTER":"71.6819","ECCENTRICITY":"0.00015740","EPHEMERIS_TYPE":"0","CLASSIFICATION_TYPE":"U","MEAN_MOTION_DOT":"-0.00002895","OBJECT_NAME":"STARLINK-2371","REF_FRAME":"TEME","MEAN_ANOMALY":"288.4341","PERIOD":"95.592","BSTAR":"-0.00017555000000","MEAN_ELEMENT_THEORY":"SGP4","CENTER_NAME":"EARTH","APOAPSIS":"548.318","TLE_LINE1":"1 47911U 21021BD  22072.90467963 -.00002895  00000-0 -17555-3 0  9997","REV_AT_EPOCH":"5625","GP_ID":"198688830","SEMIMAJOR_AXIS":"6925.363","RCS_SIZE":"LARGE","OBJECT_TYPE":"PAYLOAD","OBJECT_ID":"2021-021BD","INCLINATION":"53.0559","COUNTRY_CODE":"US","DECAY_DATE":null,"MEAN_MOTION_DDOT":"0.0000000000000","NORAD_CAT_ID":"47911"},{"EPHEMERIS_TYPE":"0","ECCENTRICITY":"0.00016760","MEAN_MOTION_DOT":"-0.00002925","OBJECT_NAME":"STARLINK-2372","CLASSIFICATION_TYPE":"U","ELEMENT_SET_NO":"999","EPOCH":"2022-03-13T21:43:25.595904","FILE":"3358388","TIME_SYSTEM":"UTC","MEAN_MOTION":"15.06391349","PERIAPSIS":"546.079","RA_OF_ASC_NODE":"331.3747","ARG_OF_PERICENTER":"63.5783","LAUNCH_DATE":"2021-03-14","SITE":"AFETR","TLE_LINE2":"2 47912  53.0568 331.3747 0001676  63.5783 296.5378 15.06391349 56464","OBJECT_ID":"2021-021BE","RCS_SIZE":"LARGE","OBJECT_TYPE":"PAYLOAD","DECAY_DATE":null,"MEAN_MOTION_DDOT":"0.0000000000000","NORAD_CAT_ID":"47912","INCLINATION":"53.0568","COUNTRY_CODE":"US","MEAN_ELEMENT_THEORY":"SGP4","CENTER_NAME":"EARTH","APOAPSIS":"548.401","REF_FRAME":"TEME","MEAN_ANOMALY":"296.5378","PERIOD":"95.593","BSTAR":"-0.00017755000000","TLE_LINE1":"1 47912U 21021BE  22072.90515736 -.00002925  00000-0 -17755-3 0  9996","REV_AT_EPOCH":"5646","GP_ID":"198688088","SEMIMAJOR_AXIS":"6925.375"},{"ELEMENT_SET_NO":"999","FILE":"3358388","EPOCH":"2022-03-13T22:23:12.249024","TIME_SYSTEM":"UTC","MEAN_MOTION":"15.06397942","PERIAPSIS":"546.004","RA_OF_ASC_NODE":"341.2670","ARG_OF_PERICENTER":"50.7766","LAUNCH_DATE":"2021-03-14","SITE":"AFETR","TLE_LINE2":"2 47913  53.0558 341.2670 0001755  50.7766 309.3378 15.06397942 56497","EPHEMERIS_TYPE":"0","ECCENTRICITY":"0.00017550","MEAN_MOTION_DOT":"0.00014484","OBJECT_NAME":"STARLINK-2374","CLASSIFICATION_TYPE":"U","CENTER_NAME":"EARTH","MEAN_ELEMENT_THEORY":"SGP4","APOAPSIS":"548.435","REF_FRAME":"TEME","PERIOD":"95.592","MEAN_ANOMALY":"309.3378","BSTAR":"0.00098933000000","REV_AT_EPOCH":"5649","TLE_LINE1":"1 47913U 21021BF  22072.93278066  .00014484  00000-0  98933-3 0  9990","GP_ID":"198687836","SEMIMAJOR_AXIS":"6925.355","OBJECT_ID":"2021-021BF","RCS_SIZE":"LARGE","OBJECT_TYPE":"PAYLOAD","MEAN_MOTION_DDOT":"0.0000000000000","DECAY_DATE":null,"NORAD_CAT_ID":"47913","INCLINATION":"53.0558","COUNTRY_CODE":"US"},{"CLASSIFICATION_TYPE":"U","OBJECT_NAME":"STARLINK-2375","MEAN_MOTION_DOT":"-0.00004076","ECCENTRICITY":"0.00014800","EPHEMERIS_TYPE":"0","TLE_LINE2":"2 47914  53.0557 341.2739 0001480  68.5205 291.5942 15.06390583 56485","SITE":"AFETR","LAUNCH_DATE":"2021-03-14","ARG_OF_PERICENTER":"68.5205","PERIAPSIS":"546.217","RA_OF_ASC_NODE":"341.2739","MEAN_MOTION":"15.06390583","TIME_SYSTEM":"UTC","FILE":"3358388","EPOCH":"2022-03-13T22:19:15.535488","ELEMENT_SET_NO":"999","COUNTRY_CODE":"US","INCLINATION":"53.0557","NORAD_CAT_ID":"47914","MEAN_MOTION_DDOT":"0.0000000000000","DECAY_DATE":null,"OBJECT_TYPE":"PAYLOAD","RCS_SIZE":"LARGE","OBJECT_ID":"2021-021BG","GP_ID":"198688583","SEMIMAJOR_AXIS":"6925.377","TLE_LINE1":"1 47914U 21021BG  22072.93004092 -.00004076  00000-0 -25499-3 0  9992","REV_AT_EPOCH":"5648","BSTAR":"-0.00025499000000","MEAN_ANOMALY":"291.5942","PERIOD":"95.593","REF_FRAME":"TEME","APOAPSIS":"548.267","MEAN_ELEMENT_THEORY":"SGP4","CENTER_NAME":"EARTH"},{"EPHEMERIS_TYPE":"0","ECCENTRICITY":"0.00016620","MEAN_MOTION_DOT":"0.00000581","OBJECT_NAME":"STARLINK-2376","CLASSIFICATION_TYPE":"U","ELEMENT_SET_NO":"999","EPOCH":"2022-03-13T22:17:15.324576","FILE":"3358388","TIME_SYSTEM":"UTC","MEAN_MOTION":"15.06401932","RA_OF_ASC_NODE":"336.2818","PERIAPSIS":"546.057","ARG_OF_PERICENTER":"71.2500","LAUNCH_DATE":"2021-03-14","SITE":"AFETR","TLE_LINE2":"2 47915  53.0574 336.2818 0001662  71.2500 288.8669 15.06401932 56563","OBJECT_ID":"2021-021BH","RCS_SIZE":"LARGE","OBJECT_TYPE":"PAYLOAD","DECAY_DATE":null,"MEAN_MOTION_DDOT":"0.0000000000000","NORAD_CAT_ID":"47915","INCLINATION":"53.0574","COUNTRY_CODE":"US","MEAN_ELEMENT_THEORY":"SGP4","CENTER_NAME":"EARTH","APOAPSIS":"548.359","REF_FRAME":"TEME","PERIOD":"95.592","MEAN_ANOMALY":"288.8669","BSTAR":"0.00005792700000","TLE_LINE1":"1 47915U 21021BH  22072.92864959  .00000581  00000-0  57927-4 0  9995","REV_AT_EPOCH":"5656","SEMIMAJOR_AXIS":"6925.343","GP_ID":"198689331"},{"EPHEMERIS_TYPE":"0","ECCENTRICITY":"0.00016050","MEAN_MOTION_DOT":"0.00002721","OBJECT_NAME":"STARLINK-2378","CLASSIFICATION_TYPE":"U","ELEMENT_SET_NO":"999","EPOCH":"2022-03-13T21:39:26.640288","FILE":"3358388","TIME_SYSTEM":"UTC","MEAN_MOTION":"15.06410818","PERIAPSIS":"546.069","RA_OF_ASC_NODE":"321.3888","ARG_OF_PERICENTER":"62.9524","LAUNCH_DATE":"2021-03-14","SITE":"AFETR","TLE_LINE2":"2 47916  53.0555 321.3888 0001605  62.9524 297.1629 15.06410818 56747","OBJECT_ID":"2021-021BJ","RCS_SIZE":"LARGE","OBJECT_TYPE":"PAYLOAD","MEAN_MOTION_DDOT":"0.0000000000000","DECAY_DATE":null,"NORAD_CAT_ID":"47916","INCLINATION":"53.0555","COUNTRY_CODE":"US","MEAN_ELEMENT_THEORY":"SGP4","CENTER_NAME":"EARTH","APOAPSIS":"548.292","REF_FRAME":"TEME","PERIOD":"95.591","MEAN_ANOMALY":"297.1629","BSTAR":"0.00020146000000","TLE_LINE1":"1 47916U 21021BJ  22072.90239167  .00002721  00000-0  20146-3 0  9991","REV_AT_EPOCH":"5674","GP_ID":"198687588","SEMIMAJOR_AXIS":"6925.315"},{"GP_ID":"198688337","SEMIMAJOR_AXIS":"6925.357","REV_AT_EPOCH":"5659","TLE_LINE1":"1 47917U 21021BK  22072.90884495 -.00002367  00000-0 -14009-3 0  9991","APOAPSIS":"548.453","CENTER_NAME":"EARTH","MEAN_ELEMENT_THEORY":"SGP4","BSTAR":"-0.00014009000000","MEAN_ANOMALY":"294.3482","PERIOD":"95.592","REF_FRAME":"TEME","NORAD_CAT_ID":"47917","DECAY_DATE":null,"MEAN_MOTION_DDOT":"0.0000000000000","COUNTRY_CODE":"US","INCLINATION":"53.0544","OBJECT_ID":"2021-021BK","OBJECT_TYPE":"PAYLOAD","RCS_SIZE":"LARGE","ARG_OF_PERICENTER":"65.7693","PERIAPSIS":"545.991","RA_OF_ASC_NODE":"331.3769","TLE_LINE2":"2 47917  53.0544 331.3769 0001777  65.7693 294.3482 15.06397212 56594","SITE":"AFETR","LAUNCH_DATE":"2021-03-14","EPOCH":"2022-03-13T21:48:44.203680","FILE":"3358388","ELEMENT_SET_NO":"999","MEAN_MOTION":"15.06397212","TIME_SYSTEM":"UTC","OBJECT_NAME":"STARLINK-2397","MEAN_MOTION_DOT":"-0.00002367","CLASSIFICATION_TYPE":"U","EPHEMERIS_TYPE":"0","ECCENTRICITY":"0.00017770"},{"FILE":"3358388","EPOCH":"2022-03-13T21:59:21.381216","ELEMENT_SET_NO":"999","TIME_SYSTEM":"UTC","MEAN_MOTION":"15.06389945","ARG_OF_PERICENTER":"56.4674","PERIAPSIS":"546.131","RA_OF_ASC_NODE":"331.3400","LAUNCH_DATE":"2021-03-14","TLE_LINE2":"2 47918  53.0550 331.3400 0001607  56.4674 303.6468 15.06389945 56628","SITE":"AFETR","EPHEMERIS_TYPE":"0","ECCENTRICITY":"0.00016070","MEAN_MOTION_DOT":"0.00000477","OBJECT_NAME":"STARLINK-2398","CLASSIFICATION_TYPE":"U","APOAPSIS":"548.357","MEAN_ELEMENT_THEORY":"SGP4","CENTER_NAME":"EARTH","MEAN_ANOMALY":"303.6468","PERIOD":"95.593","REF_FRAME":"TEME","BSTAR":"0.00005094700000","REV_AT_EPOCH":"5662","TLE_LINE1":"1 47918U 21021BL  22072.91621969  .00000477  00000-0  50947-4 0  9998","GP_ID":"198689084","SEMIMAJOR_AXIS":"6925.379","OBJECT_ID":"2021-021BL","RCS_SIZE":"LARGE","OBJECT_TYPE":"PAYLOAD","MEAN_MOTION_DDOT":"0.0000000000000","DECAY_DATE":null,"NORAD_CAT_ID":"47918","COUNTRY_CODE":"US","INCLINATION":"53.0550"}];
